OBJECT_NAME,OBJECT_ID,EPOCH,MEAN_MOTION,ECCENTRICITY,INCLINATION,RA_OF_ASC_NODE,ARG_OF_PERICENTER,MEAN_ANOMALY,EPHEMERIS_TYPE,CLASSIFICATION_TYPE,NORAD_CAT_ID,ELEMENT_SET_NO,REV_AT_EPOCH,BSTAR,MEAN_MOTION_DOT,MEAN_MOTION_DDOT
CUTE-1 (CO-55),2003-031E,2026-06-15T11:48:04.525920,14.24334794,.0009421,98.6736,175.0719,182.9125,177.2000,0,U,27844,999,19143,.12167E-3,.237E-5,0
CUBESAT XI-IV (CO-57),2003-031J,2026-06-15T11:30:13.793184,14.23619986,.0008908,98.6767,174.7736,202.2653,157.8140,0,U,27848,999,19113,.10658E-3,.199E-5,0
CUBESAT XI-V,2005-043F,2026-06-15T08:44:27.884832,14.72627055,.0013522,98.2983,321.9478,206.7180,153.3331,0,U,28895,999,10148,.19691E-3,.1202E-4,0
CUTE-1.7+APD II (CO-65),2008-021C,2026-06-15T12:36:18.114624,15.09438822,.000998,97.8271,147.9091,44.3602,315.8425,0,U,32785,999,98494,.24653E-3,.3881E-4,0
CANX-2,2008-021H,2026-06-15T11:51:07.197120,15.05605539,.0011457,97.8630,146.2384,55.3554,304.8750,0,U,32790,999,98455,.29041E-3,.4129E-4,0
SEEDS II (CO-66),2008-021J,2026-06-15T12:04:57.383616,15.32702208,.0001314,97.7511,164.3206,10.2438,349.8829,0,U,32791,999,98703,.48293E-3,.15182E-3,0
SWISSCUBE,2009-051B,2026-06-15T06:04:16.754016,14.62478329,.0005844,98.4038,74.1075,209.7614,150.3255,0,U,35932,999,88887,.17592E-3,.842E-5,0
BEESAT-1,2009-051C,2026-06-15T11:12:08.058816,14.61718018,.0004133,98.3966,73.9642,223.5476,136.5399,0,U,35933,999,88893,.15091E-3,.703E-5,0
ITUPSAT1,2009-051E,2026-06-15T10:56:50.830368,14.60438270,.0006198,98.4051,73.1472,240.3357,119.7226,0,U,35935,999,88848,.14088E-3,.634E-5,0
TISAT 1,2010-035E,2026-06-15T10:02:41.836128,15.31649244,.0001142,98.0712,112.8106,170.4418,189.6843,0,U,36799,999,86743,.51916E-3,.15795E-3,0
AEROCUBE 4.5A,2012-048K,2026-06-14T23:14:01.712832,15.94483897,.00195348,64.6249,35.0020,222.2372,137.7286,0,U,38767,999,37230,.10712861E-2,.413946E-2,.74854925E-4
STRAND-1,2013-009E,2026-06-15T10:54:46.658016,14.37162360,.0007648,98.3921,346.7318,231.1589,128.8916,0,U,39090,999,69681,.88443E-4,.22E-5,0
BRITE-AUSTRIA,2013-009F,2026-06-15T11:12:14.467104,14.36541469,.0009085,98.3993,345.9451,242.3065,117.7200,0,U,39091,999,69680,.61898E-4,.139E-5,0
NEE-01 PEGASO,2013-018B,2026-06-15T09:21:23.918688,14.93651825,.0012937,98.1214,310.4803,165.1710,194.9891,0,U,39151,999,71043,.19741E-3,.2027E-4,0
POPACS 2,2013-055E,2026-06-15T08:45:09.057024,14.91171919,.0416885,80.9902,146.2784,199.6373,158.8380,0,U,39269,999,66294,.18376E-3,.10853E-3,0
POPACS 3,2013-055F,2026-06-15T11:17:13.940736,14.56095763,.0552307,81.0017,231.0485,75.2193,290.9504,0,U,39270,999,63830,.18804E-3,.8012E-4,0
ZACUBE-1 (TSHEPISOSAT),2013-066B,2026-06-15T09:46:58.246176,15.01179836,.0040605,97.8082,128.7350,253.8926,105.7825,0,U,39417,999,68046,.20511E-3,.2611E-4,0
WNISAT-1,2013-066H,2026-06-15T10:14:37.014720,14.58059446,.0161894,97.7199,315.7080,237.1756,121.3768,0,U,39423,999,66647,.13731E-3,.705E-5,0
TRITON-1,2013-066M,2026-06-15T11:20:04.255872,14.81700832,.0088415,97.8257,76.3186,239.5976,119.6477,0,U,39427,999,67383,.17419E-3,.1409E-4,0
GOMX-1,2013-066Q,2026-06-15T13:14:28.849920,14.69456472,.0130155,97.6479,7.1177,82.7407,278.8574,0,U,39430,999,66967,.30239E-3,.199E-4,0
CUBEBUG-2 (LO-74),2013-066AA,2026-06-15T09:19:28.819200,14.93747885,.0058509,97.8905,115.3590,34.8517,325.6511,0,U,39440,999,67672,.351E-3,.3783E-4,0
NEE-02 KRYSAOR,2013-066AB,2026-06-15T12:38:09.714048,14.86612129,.0067692,97.8894,105.7531,75.5305,285.3408,0,U,39441,999,67595,.23305E-3,.2097E-4,0
FUNCUBE-1 (AO-73),2013-066AE,2026-06-15T11:10:27.189408,15.09471681,.0035505,97.8272,137.8755,207.0229,152.9152,0,U,39444,999,67940,.36309E-3,.5832E-4,0
UWE-3,2013-066AG,2026-06-15T09:51:46.833408,14.97011844,.0047855,97.8693,122.4726,327.0614,32.7628,0,U,39446,999,67731,.31229E-3,.3615E-4,0
BRITE-CA1 (TORONTO),2014-033L,2026-06-15T08:08:24.352800,14.72674284,.0077245,97.9736,295.3012,283.0419,76.2174,0,U,40020,999,64194,.97618E-4,.597E-5,0
DUCHIFAT-1,2014-033M,2026-06-15T10:08:30.060096,15.64281009,.000328,98.0462,225.3358,119.3803,240.7782,0,U,40021,999,65547,.90897E-3,.87303E-3,0
NANOSATC-BR1,2014-033Q,2026-06-14T14:12:12.655296,15.31384789,.00041799,98.0719,197.7493,169.8700,190.2624,0,U,40024,999,65358,.52029887E-3,.15703E-3,0
QB50P1,2014-033R,2026-06-15T12:03:28.012320,15.18239692,.0007678,98.0960,177.5301,221.8963,138.1683,0,U,40025,999,65277,.35526E-3,.7203E-4,0
QB50P2,2014-033Y,2026-06-15T12:21:44.930304,15.15140467,.0007883,98.0745,163.2911,168.2312,191.9104,0,U,40032,999,65241,.30147E-3,.5581E-4,0
PERSEUS-M2,2014-033AD,2026-06-15T12:34:54.950304,14.95504067,.0010938,97.9956,117.0311,310.1553,49.8708,0,U,40037,999,65053,.12009E-3,.127E-4,0
